{
  "type": "FeatureCollection",
  "features": [
    {
      "type": "Feature",
      "properties": {
        "norad_id": 35885,
        "name": "COSMOS 2251 DEB",
        "group": "cosmos-2251-debris",
        "lat": 47.11615256891561,
        "lon": -50.00159249313766,
        "alt_km": 748.9868386498447,
        "timestamp": "2025-12-14T05:42:18.859537+00:00",
        "meta_object_name": "COSMOS 2251 DEB",
        "meta_object_id": "1993-036ATY",
        "meta_epoch": "2025-12-13T12:46:26.419872",
        "meta_mean_motion": 14.37522358,
        "meta_eccentricity": 0.00232582,
        "meta_inclination": 74.0285,
        "meta_ra_of_asc_node": 293.3358,
        "meta_arg_of_pericenter": 13.5954,
        "meta_mean_anomaly": 346.5821,
        "meta_ephemeris_type": 0,
        "meta_classification_type": "U",
        "meta_norad_cat_id": 35885,
        "meta_element_set_no": 999,
        "meta_rev_at_epoch": 65027,
        "meta_bstar": 0.00047052352,
        "meta_mean_motion_dot": 1.388e-05,
        "meta_mean_motion_ddot": 0,
        "tle_line1": "1 35885U 93036ATY 25347.53225023  .00001388  00000+0  47052-3 0  9993",
        "tle_line2": "2 35885  74.0285 293.3358 0023258  13.5954 346.5821 14.37522358650276"
      },
      "geometry": {
        "type": "Point",
        "coordinates": [
          -50.00159249313766,
          47.11615256891561
        ]
      }
    },
    {
      "type": "Feature",
      "properties": {
        "norad_id": 35888,
        "name": "COSMOS 2251 DEB",
        "group": "cosmos-2251-debris",
        "lat": 60.20056415702804,
        "lon": 143.82318381205698,
        "alt_km": 658.7863371813492,
        "timestamp": "2025-12-14T05:42:18.859548+00:00",
        "meta_object_name": "COSMOS 2251 DEB",
        "meta_object_id": "1993-036AUB",
        "meta_epoch": "2025-12-12T07:04:48.029376",
        "meta_mean_motion": 14.58316356,
        "meta_eccentricity": 0.00482275,
        "meta_inclination": 74.0337,
        "meta_ra_of_asc_node": 357.5138,
        "meta_arg_of_pericenter": 129.7983,
        "meta_mean_anomaly": 230.7443,
        "meta_ephemeris_type": 0,
        "meta_classification_type": "U",
        "meta_norad_cat_id": 35888,
        "meta_element_set_no": 999,
        "meta_rev_at_epoch": 86267,
        "meta_bstar": 0.00060064021,
        "meta_mean_motion_dot": 2.795e-05,
        "meta_mean_motion_ddot": 0,
        "tle_line1": "1 35888U 93036AUB 25346.29500034  .00002795  00000+0  60064-3 0  9997",
        "tle_line2": "2 35888  74.0337 357.5138 0048227 129.7983 230.7443 14.58316356862676"
      },
      "geometry": {
        "type": "Point",
        "coordinates": [
          143.82318381205698,
          60.20056415702804
        ]
      }
    },
    {
      "type": "Feature",
      "properties": {
        "norad_id": 35890,
        "name": "COSMOS 2251 DEB",
        "group": "cosmos-2251-debris",
        "lat": 25.20250488322648,
        "lon": 52.042858053039915,
        "alt_km": 732.7902521980222,
        "timestamp": "2025-12-14T05:42:18.859558+00:00",
        "meta_object_name": "COSMOS 2251 DEB",
        "meta_object_id": "1993-036AUD",
        "meta_epoch": "2025-12-13T10:53:03.299424",
        "meta_mean_motion": 14.57503186,
        "meta_eccentricity": 0.00538039,
        "meta_inclination": 73.9362,
        "meta_ra_of_asc_node": 241.3354,
        "meta_arg_of_pericenter": 5.8757,
        "meta_mean_anomaly": 354.3025,
        "meta_ephemeris_type": 0,
        "meta_classification_type": "U",
        "meta_norad_cat_id": 35890,
        "meta_element_set_no": 999,
        "meta_rev_at_epoch": 65161,
        "meta_bstar": 0.0029822973,
        "meta_mean_motion_dot": 0.00013825,
        "meta_mean_motion_ddot": 0,
        "tle_line1": "1 35890U 93036AUD 25347.45351041  .00013825  00000+0  29823-2 0  9994",
        "tle_line2": "2 35890  73.9362 241.3354 0053803   5.8757 354.3025 14.57503186651611"
      },
      "geometry": {
        "type": "Point",
        "coordinates": [
          52.042858053039915,
          25.20250488322648
        ]
      }
    },
    {
      "type": "Feature",
      "properties": {
        "norad_id": 35891,
        "name": "COSMOS 2251 DEB",
        "group": "cosmos-2251-debris",
        "lat": 72.20101220987374,
        "lon": -152.7739844809717,
        "alt_km": 474.1926846652659,
        "timestamp": "2025-12-14T05:42:18.859568+00:00",
        "meta_object_name": "COSMOS 2251 DEB",
        "meta_object_id": "1993-036AUE",
        "meta_epoch": "2025-12-12T23:31:35.861952",
        "meta_mean_motion": 15.33352498,
        "meta_eccentricity": 0.00436495,
        "meta_inclination": 73.9891,
        "meta_ra_of_asc_node": 93.3587,
        "meta_arg_of_pericenter": 223.8568,
        "meta_mean_anomaly": 135.9169,
        "meta_ephemeris_type": 0,
        "meta_classification_type": "U",
        "meta_norad_cat_id": 35891,
        "meta_element_set_no": 999,
        "meta_rev_at_epoch": 67224,
        "meta_bstar": 0.0018817485,
        "meta_mean_motion_dot": 0.00063011,
        "meta_mean_motion_ddot": 0,
        "tle_line1": "1 35891U 93036AUE 25346.98027618  .00063011  00000+0  18817-2 0  9995",
        "tle_line2": "2 35891  73.9891  93.3587 0043649 223.8568 135.9169 15.33352498672248"
      },
      "geometry": {
        "type": "Point",
        "coordinates": [
          -152.7739844809717,
          72.20101220987374
        ]
      }
    },
    {
      "type": "Feature",
      "properties": {
        "norad_id": 35895,
        "name": "COSMOS 2251 DEB",
        "group": "cosmos-2251-debris",
        "lat": 59.09868277784726,
        "lon": 13.610418474416687,
        "alt_km": 746.1493044409845,
        "timestamp": "2025-12-14T05:42:18.859580+00:00",
        "meta_object_name": "COSMOS 2251 DEB",
        "meta_object_id": "1993-036AUJ",
        "meta_epoch": "2025-12-11T07:10:31.732032",
        "meta_mean_motion": 14.01513994,
        "meta_eccentricity": 0.01987879,
        "meta_inclination": 74.0502,
        "meta_ra_of_asc_node": 350.1634,
        "meta_arg_of_pericenter": 88.7843,
        "meta_mean_anomaly": 273.6056,
        "meta_ephemeris_type": 0,
        "meta_classification_type": "U",
        "meta_norad_cat_id": 35895,
        "meta_element_set_no": 999,
        "meta_rev_at_epoch": 58992,
        "meta_bstar": 0.0020881347,
        "meta_mean_motion_dot": 3.73e-05,
        "meta_mean_motion_ddot": 0,
        "tle_line1": "1 35895U 93036AUJ 25345.29897838  .00003730  00000+0  20881-2 0  9997",
        "tle_line2": "2 35895  74.0502 350.1634 0198787  88.7843 273.6056 14.01513994589929"
      },
      "geometry": {
        "type": "Point",
        "coordinates": [
          13.610418474416687,
          59.09868277784726
        ]
      }
    },
    {
      "type": "Feature",
      "properties": {
        "norad_id": 35898,
        "name": "COSMOS 2251 DEB",
        "group": "cosmos-2251-debris",
        "lat": 65.04023961542298,
        "lon": -27.486994646723872,
        "alt_km": 521.7792546732571,
        "timestamp": "2025-12-14T05:42:18.859590+00:00",
        "meta_object_name": "COSMOS 2251 DEB",
        "meta_object_id": "1993-036AUM",
        "meta_epoch": "2025-12-11T03:33:58.696128",
        "meta_mean_motion": 14.94658859,
        "meta_eccentricity": 0.00792199,
        "meta_inclination": 73.9916,
        "meta_ra_of_asc_node": 300.6702,
        "meta_arg_of_pericenter": 84.5945,
        "meta_mean_anomaly": 290.8859,
        "meta_ephemeris_type": 0,
        "meta_classification_type": "U",
        "meta_norad_cat_id": 35898,
        "meta_element_set_no": 999,
        "meta_rev_at_epoch": 66786,
        "meta_bstar": 0.001087469,
        "meta_mean_motion_dot": 0.00012532,
        "meta_mean_motion_ddot": 0,
        "tle_line1": "1 35898U 93036AUM 25345.14859602  .00012532  00000+0  10875-2 0  9993",
        "tle_line2": "2 35898  73.9916 300.6702 0079219  84.5945 290.8859 14.94658859667864"
      },
      "geometry": {
        "type": "Point",
        "coordinates": [
          -27.486994646723872,
          65.04023961542298
        ]
      }
    },
    {
      "type": "Feature",
      "properties": {
        "norad_id": 35901,
        "name": "COSMOS 2251 DEB",
        "group": "cosmos-2251-debris",
        "lat": 36.479908407958945,
        "lon": -172.44758515128498,
        "alt_km": 545.8900757744768,
        "timestamp": "2025-12-14T05:42:18.859601+00:00",
        "meta_object_name": "COSMOS 2251 DEB",
        "meta_object_id": "1993-036AUQ",
        "meta_epoch": "2025-12-07T10:36:21.692736",
        "meta_mean_motion": 15.06319673,
        "meta_eccentricity": 0.00066034,
        "meta_inclination": 74.0121,
        "meta_ra_of_asc_node": 33.7639,
        "meta_arg_of_pericenter": 0.5644,
        "meta_mean_anomaly": 13.1472,
        "meta_ephemeris_type": 0,
        "meta_classification_type": "U",
        "meta_norad_cat_id": 35901,
        "meta_element_set_no": 999,
        "meta_rev_at_epoch": 86047,
        "meta_bstar": 0.0047775116,
        "meta_mean_motion_dot": 0.0007096,
        "meta_mean_motion_ddot": 0,
        "tle_line1": "1 35901U 93036AUQ 25341.44191774  .00070960  00000+0  47775-2 0  9994",
        "tle_line2": "2 35901  74.0121  33.7639 0006603   0.5644  13.1472 15.06319673860474"
      },
      "geometry": {
        "type": "Point",
        "coordinates": [
          -172.44758515128498,
          36.479908407958945
        ]
      }
    }
  ]
}